start=new Date('2022-03-02T00:00:00.000Z').valueOf();
sats=[{"SEMIMAJOR_AXIS":"6925.348","TIME_SYSTEM":"UTC","REV_AT_EPOCH":"5539","INCLINATION":"53.0571","CLASSIFICATION_TYPE":"U","OBJECT_ID":"2021-018G","COUNTRY_CODE":"US","TLE_LINE1":"1 47793U 21018G   22060.26608493  .00001134  00000-0  95013-4 0  9991","EPHEMERIS_TYPE":"0","PERIAPSIS":"545.725","MEAN_MOTION_DDOT":"0.0000000000000","TLE_LINE2":"2 47793  53.0571 348.1207 0002148  50.6972 309.4207 15.06400244 55395","ELEMENT_SET_NO":"999","EPOCH":"2022-03-01T06:23:09.737952","MEAN_MOTION_DOT":"0.00001134","NORAD_CAT_ID":"47793","PERIOD":"95.592","ECCENTRICITY":"0.00021480","REF_FRAME":"TEME","ARG_OF_PERICENTER":"50.6972","OBJECT_NAME":"STARLINK-2338","CENTER_NAME":"EARTH","MEAN_MOTION":"15.06400244","RA_OF_ASC_NODE":"348.1207","LAUNCH_DATE":"2021-03-11","FILE":"3337314","BSTAR":"0.00009501300000","MEAN_ANOMALY":"309.4207","SITE":"AFETR","GP_ID":"197490622","OBJECT_TYPE":"PAYLOAD","APOAPSIS":"548.700","RCS_SIZE":"LARGE","DECAY_DATE":null,"MEAN_ELEMENT_THEORY":"SGP4"},{"MEAN_ELEMENT_THEORY":"SGP4","RCS_SIZE":"LARGE","DECAY_DATE":null,"APOAPSIS":"548.480","OBJECT_TYPE":"PAYLOAD","MEAN_ANOMALY":"306.0993","SITE":"AFETR","GP_ID":"197542839","FILE":"3338635","BSTAR":"0.00000857850000","LAUNCH_DATE":"2021-03-11","RA_OF_ASC_NODE":"345.7316","MEAN_MOTION":"15.06396314","ARG_OF_PERICENTER":"54.0164","CENTER_NAME":"EARTH","OBJECT_NAME":"STARLINK-2341","REF_FRAME":"TEME","PERIOD":"95.592","ECCENTRICITY":"0.00018130","NORAD_CAT_ID":"47794","EPOCH":"2022-03-01T19:12:46.787328","MEAN_MOTION_DOT":"-0.00000154","ELEMENT_SET_NO":"999","TLE_LINE2":"2 47794  53.0554 345.7316 0001813  54.0164 306.0993 15.06396314 55487","MEAN_MOTION_DDOT":"0.0000000000000","COUNTRY_CODE":"US","TLE_LINE1":"1 47794U 21018H   22060.80054152 -.00000154  00000-0  85785-5 0  9997","EPHEMERIS_TYPE":"0","PERIAPSIS":"545.969","OBJECT_ID":"2021-018H","CLASSIFICATION_TYPE":"U","INCLINATION":"53.0554","REV_AT_EPOCH":"5548","SEMIMAJOR_AXIS":"6925.360","TIME_SYSTEM":"UTC"},{"BSTAR":"0.00015178000000","FILE":"3337314","GP_ID":"197489624","MEAN_ANOMALY":"292.1879","SITE":"AFETR","OBJECT_TYPE":"PAYLOAD","APOAPSIS":"548.453","DECAY_DATE":null,"RCS_SIZE":"LARGE","MEAN_ELEMENT_THEORY":"SGP4","OBJECT_NAME":"STARLINK-2347","CENTER_NAME":"EARTH","ARG_OF_PERICENTER":"67.9302","MEAN_MOTION":"15.06405353","RA_OF_ASC_NODE":"347.8626","LAUNCH_DATE":"2021-03-11","TLE_LINE2":"2 47795  53.0547 347.8626 0001813  67.9302 292.1879 15.06405353 55464","ELEMENT_SET_NO":"999","MEAN_MOTION_DOT":"0.00001980","EPOCH":"2022-03-01T07:48:04.626720","NORAD_CAT_ID":"47795","ECCENTRICITY":"0.00018130","PERIOD":"95.592","REF_FRAME":"TEME","TIME_SYSTEM":"UTC","SEMIMAJOR_AXIS":"6925.332","REV_AT_EPOCH":"5546","INCLINATION":"53.0547","CLASSIFICATION_TYPE":"U","OBJECT_ID":"2021-018J","PERIAPSIS":"545.942","EPHEMERIS_TYPE":"0","TLE_LINE1":"1 47795U 21018J   22060.32505355  .00001980  00000-0  15178-3 0  9995","COUNTRY_CODE":"US","MEAN_MOTION_DDOT":"0.0000000000000"},{"RA_OF_ASC_NODE":"348.3910","LAUNCH_DATE":"2021-03-11","CENTER_NAME":"EARTH","OBJECT_NAME":"STARLINK-2373","ARG_OF_PERICENTER":"54.5754","MEAN_MOTION":"15.06401620","APOAPSIS":"548.481","DECAY_DATE":null,"RCS_SIZE":"LARGE","MEAN_ELEMENT_THEORY":"SGP4","BSTAR":"0.00018701000000","FILE":"3337314","GP_ID":"197489870","SITE":"AFETR","MEAN_ANOMALY":"305.5407","OBJECT_TYPE":"PAYLOAD","PERIAPSIS":"545.936","EPHEMERIS_TYPE":"0","TLE_LINE1":"1 47796U 21018K   22060.20710263  .00002505  00000-0  18701-3 0  9998","COUNTRY_CODE":"US","MEAN_MOTION_DDOT":"0.0000000000000","TIME_SYSTEM":"UTC","SEMIMAJOR_AXIS":"6925.344","INCLINATION":"53.0565","REV_AT_EPOCH":"5539","CLASSIFICATION_TYPE":"U","OBJECT_ID":"2021-018K","NORAD_CAT_ID":"47796","ECCENTRICITY":"0.00018370","PERIOD":"95.592","REF_FRAME":"TEME","TLE_LINE2":"2 47796  53.0565 348.3910 0001837  54.5754 305.5407 15.06401620 55397","ELEMENT_SET_NO":"999","MEAN_MOTION_DOT":"0.00002505","EPOCH":"2022-03-01T04:58:13.667232"},{"BSTAR":"0.00009546400000","FILE":"3338635","OBJECT_TYPE":"PAYLOAD","GP_ID":"197542088","MEAN_ANOMALY":"302.3467","SITE":"AFETR","DECAY_DATE":null,"RCS_SIZE":"LARGE","APOAPSIS":"548.417","MEAN_ELEMENT_THEORY":"SGP4","OBJECT_NAME":"STARLINK-2377","CENTER_NAME":"EARTH","ARG_OF_PERICENTER":"57.7691","MEAN_MOTION":"15.06401637","RA_OF_ASC_NODE":"10.5281","LAUNCH_DATE":"2021-03-11","ELEMENT_SET_NO":"999","TLE_LINE2":"2 47797  53.0554  10.5281 0001745  57.7691 302.3467 15.06401637 55139","MEAN_MOTION_DOT":"0.00001141","EPOCH":"2022-03-01T20:10:29.951616","NORAD_CAT_ID":"47797","REF_FRAME":"TEME","ECCENTRICITY":"0.00017450","PERIOD":"95.592","INCLINATION":"53.0554","REV_AT_EPOCH":"5513","TIME_SYSTEM":"UTC","SEMIMAJOR_AXIS":"6925.344","OBJECT_ID":"2021-018L","CLASSIFICATION_TYPE":"U","PERIAPSIS":"546.000","TLE_LINE1":"1 47797U 21018L   22060.84062444  .00001141  00000-0  95464-4 0  9997","EPHEMERIS_TYPE":"0","COUNTRY_CODE":"US","MEAN_MOTION_DDOT":"0.0000000000000"},{"MEAN_MOTION_DDOT":"0.0000000000000","EPHEMERIS_TYPE":"0","TLE_LINE1":"1 47798U 21018M   22060.81529129 -.00000472  00000-0 -12779-4 0  9999","COUNTRY_CODE":"US","PERIAPSIS":"545.786","CLASSIFICATION_TYPE":"U","OBJECT_ID":"2021-018M","SEMIMAJOR_AXIS":"6925.358","TIME_SYSTEM":"UTC","INCLINATION":"53.0581","REV_AT_EPOCH":"5548","PERIOD":"95.592","ECCENTRICITY":"0.00020740","REF_FRAME":"TEME","NORAD_CAT_ID":"47798","EPOCH":"2022-03-01T19:34:01.167456","MEAN_MOTION_DOT":"-0.00000472","TLE_LINE2":"2 47798  53.0581 345.6558 0002074  58.7662 301.3530 15.06397037 55480","ELEMENT_SET_NO":"999","LAUNCH_DATE":"2021-03-11","RA_OF_ASC_NODE":"345.6558","MEAN_MOTION":"15.06397037","ARG_OF_PERICENTER":"58.7662","OBJECT_NAME":"STARLINK-2379","CENTER_NAME":"EARTH","MEAN_ELEMENT_THEORY":"SGP4","APOAPSIS":"548.659","RCS_SIZE":"LARGE","DECAY_DATE":null,"MEAN_ANOMALY":"301.3530","SITE":"AFETR","GP_ID":"197542340","OBJECT_TYPE":"PAYLOAD","FILE":"3338635","BSTAR":"-0.00001277900000"},{"REV_AT_EPOCH":"5547","INCLINATION":"53.0547","TIME_SYSTEM":"UTC","SEMIMAJOR_AXIS":"6925.347","OBJECT_ID":"2021-018N","CLASSIFICATION_TYPE":"U","PERIAPSIS":"545.822","COUNTRY_CODE":"US","TLE_LINE1":"1 47799U 21018N   22060.81160339 -.00000720  00000-0 -29419-4 0  9999","EPHEMERIS_TYPE":"0","MEAN_MOTION_DDOT":"0.0000000000000","ELEMENT_SET_NO":"999","TLE_LINE2":"2 47799  53.0547 345.6814 0002007  70.6355 289.4851 15.06400414 55471","MEAN_MOTION_DOT":"-0.00000720","EPOCH":"2022-03-01T19:28:42.532896","NORAD_CAT_ID":"47799","REF_FRAME":"TEME","PERIOD":"95.592","ECCENTRICITY":"0.00020070","OBJECT_NAME":"STARLINK-2380","CENTER_NAME":"EARTH","ARG_OF_PERICENTER":"70.6355","MEAN_MOTION":"15.06400414","RA_OF_ASC_NODE":"345.6814","LAUNCH_DATE":"2021-03-11","BSTAR":"-0.00002941900000","FILE":"3338635","OBJECT_TYPE":"PAYLOAD","GP_ID":"197542591","MEAN_ANOMALY":"289.4851","SITE":"AFETR","DECAY_DATE":null,"RCS_SIZE":"LARGE","APOAPSIS":"548.602","MEAN_ELEMENT_THEORY":"SGP4"},{"OBJECT_TYPE":"PAYLOAD","MEAN_ANOMALY":"299.5738","SITE":"AFETR","GP_ID":"197541339","FILE":"3338635","BSTAR":"0.00014067000000","MEAN_ELEMENT_THEORY":"SGP4","DECAY_DATE":null,"RCS_SIZE":"LARGE","APOAPSIS":"548.524","MEAN_MOTION":"15.06401638","ARG_OF_PERICENTER":"60.5440","OBJECT_NAME":"STARLINK-2381","CENTER_NAME":"EARTH","LAUNCH_DATE":"2021-03-11","RA_OF_ASC_NODE":"345.8773","EPOCH":"2022-03-01T18:25:00.469920","MEAN_MOTION_DOT":"0.00001814","ELEMENT_SET_NO":"999","TLE_LINE2":"2 47800  53.0552 345.8773 0001899  60.5440 299.5738 15.06401638 55472","REF_FRAME":"TEME","PERIOD":"95.592","ECCENTRICITY":"0.00018990","NORAD_CAT_ID":"47800","OBJECT_ID":"2021-018P","CLASSIFICATION_TYPE":"U","INCLINATION":"53.0552","REV_AT_EPOCH":"5547","SEMIMAJOR_AXIS":"6925.344","TIME_SYSTEM":"UTC","MEAN_MOTION_DDOT":"0.0000000000000","EPHEMERIS_TYPE":"0","TLE_LINE1":"1 47800U 21018P   22060.76736655  .00001814  00000-0  14067-3 0  9991","COUNTRY_CODE":"US","PERIAPSIS":"545.893"},{"LAUNCH_DATE":"2021-03-11","RA_OF_ASC_NODE":"350.8313","MEAN_MOTION":"15.06398836","ARG_OF_PERICENTER":"62.2289","CENTER_NAME":"EARTH","OBJECT_NAME":"STARLINK-2382","MEAN_ELEMENT_THEORY":"SGP4","APOAPSIS":"548.509","RCS_SIZE":"LARGE","DECAY_DATE":null,"SITE":"AFETR","MEAN_ANOMALY":"297.8889","GP_ID":"197541589","OBJECT_TYPE":"PAYLOAD","FILE":"3338635","BSTAR":"0.00011960000000","MEAN_MOTION_DDOT":"0.0000000000000","COUNTRY_CODE":"US","TLE_LINE1":"1 47801U 21018Q   22060.80192128  .00001500  00000-0  11960-3 0  9999","EPHEMERIS_TYPE":"0","PERIAPSIS":"545.926","CLASSIFICATION_TYPE":"U","OBJECT_ID":"2021-018Q","SEMIMAJOR_AXIS":"6925.352","TIME_SYSTEM":"UTC","INCLINATION":"53.0528","REV_AT_EPOCH":"5541","PERIOD":"95.592","ECCENTRICITY":"0.00018650","REF_FRAME":"TEME","NORAD_CAT_ID":"47801","EPOCH":"2022-03-01T19:14:45.998592","MEAN_MOTION_DOT":"0.00001500","TLE_LINE2":"2 47801  53.0528 350.8313 0001865  62.2289 297.8889 15.06398836 55412","ELEMENT_SET_NO":"999"},{"REF_FRAME":"TEME","PERIOD":"95.592","ECCENTRICITY":"0.00016990","NORAD_CAT_ID":"47802","EPOCH":"2022-03-01T20:21:06.970176","MEAN_MOTION_DOT":"0.00001416","ELEMENT_SET_NO":"999","TLE_LINE2":"2 47802  53.0535  10.5023 0001699  70.8706 289.2466 15.06400757 55145","MEAN_MOTION_DDOT":"0.0000000000000","EPHEMERIS_TYPE":"0","TLE_LINE1":"1 47802U 21018R   22060.84799734  .00001416  00000-0  11393-3 0  9996","COUNTRY_CODE":"US","PERIAPSIS":"546.035","OBJECT_ID":"2021-018R","CLASSIFICATION_TYPE":"U","REV_AT_EPOCH":"5514","INCLINATION":"53.0535","SEMIMAJOR_AXIS":"6925.346","TIME_SYSTEM":"UTC","MEAN_ELEMENT_THEORY":"SGP4","DECAY_DATE":null,"RCS_SIZE":"LARGE","APOAPSIS":"548.388","OBJECT_TYPE":"PAYLOAD","MEAN_ANOMALY":"289.2466","SITE":"AFETR","GP_ID":"197542840","FILE":"3338635","BSTAR":"0.00011393000000","LAUNCH_DATE":"2021-03-11","RA_OF_ASC_NODE":"10.5023","MEAN_MOTION":"15.06400757","ARG_OF_PERICENTER":"70.8706","OBJECT_NAME":"STARLINK-2383","CENTER_NAME":"EARTH"}];
